[{"OBJECT_NAME":"OBJECT F","OBJECT_ID":"2023-072F","EPOCH":"2026-03-09T23:31:37.259904","MEAN_MOTION":15.29470958,"ECCENTRICITY":0.00062878,"INCLINATION":97.5173,"RA_OF_ASC_NODE":265.798,"ARG_OF_PERICENTER":19.0017,"MEAN_ANOMALY":341.1456,"EPHEMERIS_TYPE":0,"CLASSIFICATION_TYPE":"U","NORAD_CAT_ID":56748,"ELEMENT_SET_NO":999,"REV_AT_EPOCH":15460,"BSTAR":0.00043416252,"MEAN_MOTION_DOT":0.00012341,"MEAN_MOTION_DDOT":0},{"OBJECT_NAME":"STARLINK-30496","OBJECT_ID":"2023-147G","EPOCH":"2026-03-09T22:00:01.999584","MEAN_MOTION":15.26720352,"ECCENTRICITY":0.00015341,"INCLINATION":43.0024,"RA_OF_ASC_NODE":323.8675,"ARG_OF_PERICENTER":268.8891,"MEAN_ANOMALY":82.3061,"EPHEMERIS_TYPE":0,"CLASSIFICATION_TYPE":"U","NORAD_CAT_ID":57919,"ELEMENT_SET_NO":999,"REV_AT_EPOCH":578,"BSTAR":-0.0017400663,"MEAN_MOTION_DOT":-0.00046614,"MEAN_MOTION_DDOT":0}]
